{"type": "FeatureCollection", "features": [ {"type": "Feature", "properties": {"norad_id": 34908, "name": "COSMOS 2251 DEB", "group": "cosmos-2251-debris", "lat": 62.51848341030457, "lon": 74.51060509300653, "alt_km": 732.537713317518, "timestamp": "2025-12-03T04:52:30.034155+00:00", "meta": {"OBJECT_NAME": "COSMOS 2251 DEB", "OBJECT_ID": "1993-036ADD", "EPOCH": "2025-12-01T23:18:58.685184", "MEAN_MOTION": 14.37345471, "ECCENTRICITY": 0.0039851, "INCLINATION": 74.0598, "RA_OF_ASC_NODE": 43.443, "ARG_OF_PERICENTER": 63.2193, "MEAN_ANOMALY": 113.7386, "EPHEMERIS_TYPE": 0, "CLASSIFICATION_TYPE": "U", "NORAD_CAT_ID": 34908, "ELEMENT_SET_NO": 999, "REV_AT_EPOCH": 87124, "BSTAR": 0.00060872017, "MEAN_MOTION_DOT": 1.808e-05, "MEAN_MOTION_DDOT": 0}, "tle": {"line1": "1 34908U 93036ADD 25335.97151256  .00001808  00000+0  60872-3 0  9991", "line2": "2 34908  74.0598  43.4430 0039851  63.2193 113.7386 14.37345471871247"}}, "geometry": {"type": "Point", "coordinates": [74.51060509300653, 62.51848341030457]}}, {"type": "Feature", "properties": {"norad_id": 34909, "name": "COSMOS 2251 DEB", "group": "cosmos-2251-debris", "lat": -68.87865663420177, "lon": -36.76913194180796, "alt_km": 588.3837281910419, "timestamp": "2025-12-03T04:52:30.034165+00:00", "meta": {"OBJECT_NAME": "COSMOS 2251 DEB", "OBJECT_ID": "1993-036ADE", "EPOCH": "2025-12-02T16:20:39.593184", "MEAN_MOTION": 14.77677518, "ECCENTRICITY": 0.0085218, "INCLINATION": 74.0135, "RA_OF_ASC_NODE": 96.3432, "ARG_OF_PERICENTER": 234.3085, "MEAN_ANOMALY": 125.0138, "EPHEMERIS_TYPE": 0, "CLASSIFICATION_TYPE": "U", "NORAD_CAT_ID": 34909, "ELEMENT_SET_NO": 999, "REV_AT_EPOCH": 66703, "BSTAR": 0.00090529, "MEAN_MOTION_DOT": 6.857e-05, "MEAN_MOTION_DDOT": 0}, "tle": {"line1": "1 34909U 93036ADE 25336.68101381  .00006857  00000+0  90529-3 0  9996", "line2": "2 34909  74.0135  96.3432 0085218 234.3085 125.0138 14.77677518667038"}}, "geometry": {"type": "Point", "coordinates": [-36.76913194180796, -68.87865663420177]}}, {"type": "Feature", "properties": {"norad_id": 34910, "name": "COSMOS 2251 DEB", "group": "cosmos-2251-debris", "lat": -16.084275756123336, "lon": 111.68813755480924, "alt_km": 1206.253376757988, "timestamp": "2025-12-03T04:52:30.034176+00:00", "meta": {"OBJECT_NAME": "COSMOS 2251 DEB", "OBJECT_ID": "1993-036ADF", "EPOCH": "2025-12-02T16:32:32.334432", "MEAN_MOTION": 13.37643089, "ECCENTRICITY": 0.0468107, "INCLINATION": 73.8742, "RA_OF_ASC_NODE": 117.2836, "ARG_OF_PERICENTER": 237.8282, "MEAN_ANOMALY": 146.7074, "EPHEMERIS_TYPE": 0, "CLASSIFICATION_TYPE": "U", "NORAD_CAT_ID": 34910, "ELEMENT_SET_NO": 999, "REV_AT_EPOCH": 81390, "BSTAR": 0.0013052, "MEAN_MOTION_DOT": 1.267e-05, "MEAN_MOTION_DDOT": 0}, "tle": {"line1": "1 34910U 93036ADF 25336.68926313  .00001267  00000+0  13052-2 0  9993", "line2": "2 34910  73.8742 117.2836 0468107 237.8282 146.7074 13.37643089813900"}}, "geometry": {"type": "Point", "coordinates": [111.68813755480924, -16.084275756123336]}}, {"type": "Feature", "properties": {"norad_id": 34911, "name": "COSMOS 2251 DEB", "group": "cosmos-2251-debris", "lat": -72.19632078020878, "lon": 145.92736790315135, "alt_km": 738.8123472429907, "timestamp": "2025-12-03T04:52:30.034186+00:00", "meta": {"OBJECT_NAME": "COSMOS 2251 DEB", "OBJECT_ID": "1993-036ADG", "EPOCH": "2025-12-02T13:41:24.881568", "MEAN_MOTION": 14.59342209, "ECCENTRICITY": 0.00831449, "INCLINATION": 74.0412, "RA_OF_ASC_NODE": 264.1239, "ARG_OF_PERICENTER": 32.1862, "MEAN_ANOMALY": 147.9642, "EPHEMERIS_TYPE": 0, "CLASSIFICATION_TYPE": "U", "NORAD_CAT_ID": 34911, "ELEMENT_SET_NO": 999, "REV_AT_EPOCH": 88438, "BSTAR": 0.00024674495, "MEAN_MOTION_DOT": 1.193e-05, "MEAN_MOTION_DDOT": 0}, "tle": {"line1": "1 34911U 93036ADG 25336.57042687  .00001193  00000+0  24674-3 0  9996", "line2": "2 34911  74.0412 264.1239 0083144  32.1862 147.9642 14.59342209884380"}}, "geometry": {"type": "Point", "coordinates": [145.92736790315135, -72.19632078020878]}}, {"type": "Feature", "properties": {"norad_id": 34913, "name": "COSMOS 2251 DEB", "group": "cosmos-2251-debris", "lat": 32.1209913681928, "lon": -49.666343709942865, "alt_km": 760.547229953173, "timestamp": "2025-12-03T04:52:30.034196+00:00", "meta": {"OBJECT_NAME": "COSMOS 2251 DEB", "OBJECT_ID": "1993-036ADJ", "EPOCH": "2025-12-02T16:08:10.454208", "MEAN_MOTION": 14.34632081, "ECCENTRICITY": 0.0020003, "INCLINATION": 74.0276, "RA_OF_ASC_NODE": 300.9473, "ARG_OF_PERICENTER": 54.1655, "MEAN_ANOMALY": 119.3628, "EPHEMERIS_TYPE": 0, "CLASSIFICATION_TYPE": "U", "NORAD_CAT_ID": 34913, "ELEMENT_SET_NO": 999, "REV_AT_EPOCH": 65043, "BSTAR": 7.068e-05, "MEAN_MOTION_DOT": 1.74e-06, "MEAN_MOTION_DDOT": 0}, "tle": {"line1": "1 34913U 93036ADJ 25336.67234322  .00000174  00000+0  70680-4 0  9995", "line2": "2 34913  74.0276 300.9473 0020003  54.1655 119.3628 14.34632081650435"}}, "geometry": {"type": "Point", "coordinates": [-49.666343709942865, 32.1209913681928]}}, {"type": "Feature", "properties": {"norad_id": 34918, "name": "COSMOS 2251 DEB", "group": "cosmos-2251-debris", "lat": -5.331795632394387, "lon": -29.707580109002503, "alt_km": 679.3984323524146, "timestamp": "2025-12-03T04:52:30.034207+00:00", "meta": {"OBJECT_NAME": "COSMOS 2251 DEB", "OBJECT_ID": "1993-036ADP", "EPOCH": "2025-12-02T07:49:20.078112", "MEAN_MOTION": 14.60858458, "ECCENTRICITY": 0.0034182, "INCLINATION": 74.0712, "RA_OF_ASC_NODE": 333.4916, "ARG_OF_PERICENTER": 302.4495, "MEAN_ANOMALY": 120.4085, "EPHEMERIS_TYPE": 0, "CLASSIFICATION_TYPE": "U", "NORAD_CAT_ID": 34918, "ELEMENT_SET_NO": 999, "REV_AT_EPOCH": 65184, "BSTAR": 0.0024749, "MEAN_MOTION_DOT": 0.00012194, "MEAN_MOTION_DDOT": 0}, "tle": {"line1": "1 34918U 93036ADP 25336.32592683  .00012194  00000+0  24749-2 0  9997", "line2": "2 34918  74.0712 333.4916 0034182 302.4495 120.4085 14.60858458651845"}}, "geometry": {"type": "Point", "coordinates": [-29.707580109002503, -5.331795632394387]}}, {"type": "Feature", "properties": {"norad_id": 34924, "name": "COSMOS 2251 DEB", "group": "cosmos-2251-debris", "lat": 26.423336983769882, "lon": 115.81644591357328, "alt_km": 730.4334497872451, "timestamp": "2025-12-03T04:52:30.034217+00:00", "meta": {"OBJECT_NAME": "COSMOS 2251 DEB", "OBJECT_ID": "1993-036ADV", "EPOCH": "2025-12-02T04:22:00.331392", "MEAN_MOTION": 14.59847465, "ECCENTRICITY": 0.0055391, "INCLINATION": 74.0396, "RA_OF_ASC_NODE": 109.5877, "ARG_OF_PERICENTER": 196.6336, "MEAN_ANOMALY": 226.616, "EPHEMERIS_TYPE": 0, "CLASSIFICATION_TYPE": "U", "NORAD_CAT_ID": 34924, "ELEMENT_SET_NO": 999, "REV_AT_EPOCH": 87569, "BSTAR": 0.0014998, "MEAN_MOTION_DOT": 7.306e-05, "MEAN_MOTION_DDOT": 0}, "tle": {"line1": "1 34924U 93036ADV 25336.18194828  .00007306  00000+0  14998-2 0  9991", "line2": "2 34924  74.0396 109.5877 0055391 196.6336 226.6160 14.59847465875698"}}, "geometry": {"type": "Point", "coordinates": [115.81644591357328, 26.423336983769882]}}, {"type": "Feature", "properties": {"norad_id": 34944, "name": "COSMOS 2251 DEB", "group": "cosmos-2251-debris", "lat": -72.64600910555667, "lon": 138.20775097134876, "alt_km": 1005.4514500383002, "timestamp": "2025-12-03T04:52:30.034228+00:00", "meta": {"OBJECT_NAME": "COSMOS 2251 DEB", "OBJECT_ID": "1993-036ADX", "EPOCH": "2025-11-29T02:52:15.324384", "MEAN_MOTION": 14.1413005, "ECCENTRICITY": 0.02197265, "INCLINATION": 73.749, "RA_OF_ASC_NODE": 256.6053, "ARG_OF_PERICENTER": 106.5861, "MEAN_ANOMALY": 255.9534, "EPHEMERIS_TYPE": 0, "CLASSIFICATION_TYPE": "U", "NORAD_CAT_ID": 34944, "ELEMENT_SET_NO": 999, "REV_AT_EPOCH": 63890, "BSTAR": 0.00066557018, "MEAN_MOTION_DOT": 1.572e-05, "MEAN_MOTION_DDOT": 0}, "tle": {"line1": "1 34944U 93036ADX 25333.11962181  .00001572  00000+0  66557-3 0  9996", "line2": "2 34944  73.7490 256.6053 0219726 106.5861 255.9534 14.14130050638905"}}, "geometry": {"type": "Point", "coordinates": [138.20775097134876, -72.64600910555667]}}, {"type": "Feature", "properties": {"norad_id": 34946, "name": "COSMOS 2251 DEB", "group": "cosmos-2251-debris", "lat": 15.365230193177233, "lon": 175.8728781466211, "alt_km": 655.491147425897, "timestamp": "2025-12-03T04:52:30.034238+00:00", "meta": {"OBJECT_NAME": "COSMOS 2251 DEB", "OBJECT_ID": "1993-036ADZ", "EPOCH": "2025-11-30T18:38:49.789824", "MEAN_MOTION": 14.61892999, "ECCENTRICITY": 0.00492329, "INCLINATION": 74.0241, "RA_OF_ASC_NODE": 5.0332, "ARG_OF_PERICENTER": 145.8487, "MEAN_ANOMALY": 214.5864, "EPHEMERIS_TYPE": 0, "CLASSIFICATION_TYPE": "U", "NORAD_CAT_ID": 34946, "ELEMENT_SET_NO": 999, "REV_AT_EPOCH": 88034, "BSTAR": 0.00052129859, "MEAN_MOTION_DOT": 2.623e-05, "MEAN_MOTION_DDOT": 0}, "tle": {"line1": "1 34946U 93036ADZ 25334.77696516  .00002623  00000+0  52130-3 0  9997", "line2": "2 34946  74.0241   5.0332 0049232 145.8487 214.5864 14.61892999880347"}}, "geometry": {"type": "Point", "coordinates": [175.8728781466211, 15.365230193177233]}}, {"type": "Feature", "properties": {"norad_id": 34949, "name": "COSMOS 2251 DEB", "group": "cosmos-2251-debris", "lat": 10.642474821467681, "lon": 131.37211771428207, "alt_km": 654.9866528397579, "timestamp": "2025-12-03T04:52:30.034249+00:00", "meta": {"OBJECT_NAME": "COSMOS 2251 DEB", "OBJECT_ID": "1993-036AEC", "EPOCH": "2025-12-02T19:03:02.763936", "MEAN_MOTION": 14.73884701, "ECCENTRICITY": 0.0080484, "INCLINATION": 74.0166, "RA_OF_ASC_NODE": 129.0839, "ARG_OF_PERICENTER": 276.4217, "MEAN_ANOMALY": 82.7796, "EPHEMERIS_TYPE": 0, "CLASSIFICATION_TYPE": "U", "NORAD_CAT_ID": 34949, "ELEMENT_SET_NO": 999, "REV_AT_EPOCH": 88215, "BSTAR": 0.00066957, "MEAN_MOTION_DOT": 4.59e-05, "MEAN_MOTION_DDOT": 0}, "tle": {"line1": "1 34949U 93036AEC 25336.79378199  .00004590  00000+0  66957-3 0  9995", "line2": "2 34949  74.0166 129.0839 0080484 276.4217  82.7796 14.73884701882156"}}, "geometry": {"type": "Point", "coordinates": [131.37211771428207, 10.642474821467681]}}]}